OPTICUBE 04             
1 41851U 16067D   19047.81070132  .00000649  00000-0  62027-4 0  9992
2 41851  97.9154 143.9870 0010401  75.1302 285.1070 14.96761345123681
AEROCUBE 8D             
1 41852U 16067E   19047.80486025  .00000619  00000-0  59533-4 0  9999
2 41852  97.9164 143.8081 0011042  75.1890 285.0554 14.96639445123669
AEROCUBE 8C             
1 41853U 16067F   19047.82485853  .00000229  00000-0  25410-4 0  9994
2 41853  97.9168 143.7742 0011596  75.0920 285.1584 14.96608746123668
PROMETHEUS 2-1          
1 41854U 16067G   19047.80825324  .00000869  00000-0  81127-4 0  9991
2 41854  97.9171 143.8410 0011762  76.0317 284.2212 14.96783476123664
PROMETHEUS 2-3          
1 41855U 16067H   19048.47944636  .00000904  00000-0  84248-4 0  9991
2 41855  97.9175 144.5317 0011994  74.0554 286.1987 14.96787469123768
INS-1B                  
1 41954U 17008G   19048.40338371  .00001061  00000-0  47231-4 0  9999
2 41954  97.4157 114.9653 0008631 202.6957 157.3900 15.23620220111333
BGUSAT                  
1 41999U 17008BD  19047.76420149  .00001800  00000-0  73745-4 0  9991
2 41999  97.4218 116.2144 0007225 220.2183 139.8521 15.25577238110701
DIDO-2                  
1 42000U 17008BE  19047.73549491  .00000771  00000-0  35083-4 0  9993
2 42000  97.4171 114.8309 0007361 225.2557 134.8082 15.23661304110636
PEASSS                  
1 42015U 17008BV  19048.43009400  .00000956  00000-0  41708-4 0  9994
2 42015  97.4173 116.2932 0005214 226.6015 133.4789 15.24564299111277
AL-FARABI 1             
1 42016U 17008BW  19047.75436022  .00001197  00000-0  50666-4 0  9994
2 42016  97.4187 116.0331 0005054 228.3605 131.7201 15.25116525111311
NAYIF-1 (EO-88)         
1 42017U 17008BX  19047.80997684  .00001236  00000-0  52209-4 0  9996
2 42017  97.4184 116.0972 0005007 228.5305 131.5503 15.25146513111343
HAVELSAT                
1 42700U 98067LH  19048.51201028  .00454620  11501-3  47214-3 0  9997
2 42700  51.6178 159.1687 0006907 350.2500   9.8378 16.09903263100866
CXBN-2                  
1 42704U 98067LM  19048.55545000  .00414470  94947-4  46796-3 0  9995
2 42704  51.6222 161.0638 0007423 348.1708  11.9130 16.08620662100765
PHOENIX                 
1 42706U 98067LP  19048.50558072  .00049136  00000-0  20752-3 0  9995
2 42706  51.6260 173.7308 0002133 352.6574   7.4398 15.84900219100585
QBEE50-LTU-OC           
1 42708U 98067LR  19048.53954272  .00513400  14774-3  49810-3 0  9994
2 42708  51.6169 160.1270 0007812 348.4947  11.5888 16.10907371100710
ALTAIR PATHFINDER       
1 42711U 98067LS  19047.89826485  .00025072  00000-0  18458-3 0  9991
2 42711  51.6315 197.6846 0002877  26.2089 333.9055 15.72895255 99870
SHARC                   
1 42712U 98067LT  19047.83704309  .00076443  00000-0  35855-3 0  9994
2 42712  51.6297 193.5209 0001635 333.2008  26.8910 15.82504509100164
ZA-AEROSAT              
1 42713U 98067LU  19048.51694952  .00046785  00000-0  21560-3 0  9997
2 42713  51.6320 179.1481 0002355   1.0742 359.0266 15.83079727100175
CSUNSAT1                
1 42715U 98067LW  19048.50668305  .00061283  00000-0  24244-3 0  9993
2 42715  51.6292 176.0461 0003140   4.3104 355.7926 15.86163512100210
SPACECUBE               
1 42717U 98067LY  19048.54772001  .00425880  10010-3  47509-3 0  9999
2 42717  51.6120 160.8105 0006955 348.2640  11.8210 16.08811929 99782
NJUST-1                 
1 42722U 98067MB  19048.41621628  .00044507  00000-0  23907-3 0  9993
2 42722  51.6376 184.3247 0003185  78.5777  31.9058 15.79778102 99162
LILACSAT-1 (LO-90)      
1 42725U 98067ME  19048.56885013  .00150881  19933-4  40252-3 0  9996
2 42725  51.6331 170.1803 0002334  27.5316  58.3378 15.94239754 99277
NSIGHT                  
1 42726U 98067MF  19047.86327551  .00014659  00000-0  14228-3 0  9994
2 42726  51.6361 209.6492 0004814  72.9789 287.1734 15.66589977 98693
SNUSAT-1B               
1 42727U 98067MG  19048.53831775  .00104658  15355-4  29811-3 0  9994
2 42727  51.6262 170.8136 0004100   6.7525 353.3536 15.93181850 99223
SNUSAT-1                
1 42733U 98067MN  19048.52967185  .00186049  25510-4  37140-3 0  9997
2 42733  51.6226 166.1693 0005675 355.2556   4.8399 15.99399118 99173
BEEAGLESAT              
1 42736U 98067MR  19048.53289249  .00060887  00000-0  22607-3 0  9995
2 42736  51.6285 174.6329 0002414  46.4974 313.6231 15.87466868 99127
UCLSAT                  
1 42765U 17036A   19048.21820376  .00001011  00000-0  46688-4 0  9991
2 42765  97.3686 108.7360 0010086 300.9382  59.0863 15.22430780 91980
LITUANICASAT-2          
1 42768U 17036D   19047.93019869  .00001546  00000-0  70028-4 0  9997
2 42768  97.3714 108.0120 0013722 289.6694  70.3061 15.22287696 91781
AALTO-1                 
1 42775U 17036L   19047.77511589  .00000631  00000-0  31404-4 0  9992
2 42775  97.3676 107.3197 0012499 290.2996  69.6896 15.21125986 91672
URSA MAIOR              
1 42776U 17036M   19047.94317081  .00000686  00000-0  33750-4 0  9999
2 42776  97.3683 107.5946 0012304 289.5653  70.4254 15.21244093 91704
COMPASS 2               
1 42777U 17036N   19047.89439237  .00001344  00000-0  60970-4 0  9998
2 42777  97.3715 108.4125 0011081 291.9135  68.0923 15.22481041 91739
DIAMOND RED             
1 42783U 17036U   19047.89330705  .00000826  00000-0  39245-4 0  9990
2 42783  97.3687 108.1137 0010750 302.5121  57.5076 15.21939274 91726
PEGASUS                 
1 42784U 17036V   19048.22317608  .00000898  00000-0  42074-4 0  9999
2 42784  97.3690 108.6002 0010644 301.0190  59.0000 15.22200493 91784
DIAMOND GREEN           
1 42785U 17036W   19047.82635221  .00000793  00000-0  37778-4 0  9998
2 42785  97.3689 108.0685 0010670 303.5503  56.4714 15.21938183 91784
DIAMOND BLUE            
1 42786U 17036X   19048.41708596  .00000789  00000-0  37615-4 0  9996
2 42786  97.3688 108.6464 0010480 301.5192  58.5019 15.21939543 91799
NUDTSAT                 
1 42787U 17036Y   19047.96351066  .00001513  00000-0  67214-4 0  9996
2 42787  97.3729 108.8365 0011388 306.3980  53.6206 15.23022266 91616
SUCHAI                  
1 42788U 17036Z   19047.73541108  .00001058  00000-0  48529-4 0  9992
2 42788  97.3694 108.3435 0010256 302.5018  57.5227 15.22560357 91796
SKCUBE                  
1 42789U 17036AA  19047.87556356  .00001022  00000-0  47105-4 0  9999
2 42789  97.3691 108.4459 0010119 302.0678  57.9575 15.22483957 91730
VZLUSAT-1               
1 42790U 17036AB  19047.95065098  .00001353  00000-0  60412-4 0  9991
2 42790  97.3702 108.8282 0009697 301.2071  58.8215 15.23029436 91763
ROBUSTA-1B              
1 42792U 17036AD  19047.81946110  .00001043  00000-0  47761-4 0  9999
2 42792  97.3691 108.5078 0009696 303.4098  56.6210 15.22644988 91747
CICERO 6                
1 42793U 17036AE  19047.78546287  .00000725  00000-0  34418-4 0  9998
2 42793  97.3677 108.3506 0008972 305.8145  54.2257 15.22338881 91805
D-SAT                   
1 42794U 17036AF  19047.87222518  .00000304  00000-0  31838-4 0  9993
2 42794  97.5582  97.8196 0126631 186.9421 173.0050 14.91020875 90185
TOKI                    
1 42820U 98067MU  19047.83980161  .00077809  00000-0  31096-3 0  9996
2 42820  51.6287 182.8135 0002524 345.6212  14.4719 15.85863154 92431
MAZAALAI (NUMSAT-1)     
1 42822U 98067MW  19048.52610379  .00059326  00000-0  25173-3 0  9999
2 42822  51.6304 180.6872 0002563 358.1054   1.9939 15.84723287 92484
BRAC ONNESHA            
1 42823U 98067MX  19048.54493832  .00059525  00000-0  24479-3 0  9994
2 42823  51.6277 180.0498 0003369  13.0789 347.0302 15.85371780 92496
NIGERIAEDUSAT-1         
1 42824U 98067MY  19047.81435214  .00060105  00000-0  25909-3 0  9999
2 42824  51.6313 184.9976 0003067  22.7939 337.3200 15.84385675 92352
CORVUS BC2              
1 42846U 17042X   19048.28587455  .00000017  00000-0  69524-5 0  9993
2 42846  97.5796 307.0284 0011155  98.3019 261.9466 14.91922344 86913
CORVUS BC1              
1 42847U 17042Y   19047.77778554  .00000126  00000-0  17700-4 0  9998
2 42847  97.5798 306.6264 0010813  99.3189 260.9253 14.92021746 86839
SILU-1 (SILKROAD 1)     
1 42903U 17021F   19048.53316990  .00093165  11474-4  25807-3 0  9997
2 42903  42.7712 264.2269 0017899 259.3174 185.2032 15.93100885 88736
MIRATA                  
1 43015U 17073C   19048.36662179  .00000555  00000-0  49085-4 0  9998
2 43015  97.7178 334.3402 0255889 192.7715 166.6935 14.78699918 67362
MAKERSAT 0              
1 43016U 17073D   19047.75475543  .00000355  00000-0  33400-4 0  9990
2 43016  97.7212 333.9374 0257766 194.9651 164.3833 14.78535141 67273
ASTERIA                 
1 43020U 98067NH  19047.88499303  .00009826  00000-0  10073-3 0  9993
2 43020  51.6404 219.6709 0002131  22.1918 337.9170 15.65684395 70745
DELLINGR (RBLE)         
1 43021U 98067NJ  19047.90284574  .00007340  00000-0  91789-4 0  9992
2 43021  51.6374 226.4624 0002025  13.3805 346.7242 15.60981250 70656
OSIRIS-3U               
1 43027U 98067NL  19048.51032962  .00284682  44411-4  59307-3 0  9991
2 43027  51.6303 188.9120 0006665 323.5674  36.4881 15.98522578 71086
AEROCUBE 7B (OCSD B)    
1 43042U 17071F   19048.54187277  .00002348  00000-0  67040-4 0  9990
2 43042  51.6384 284.8651 0005471  79.8799 280.2802 15.40383244 67405
AEROCUBE 7C (OCSD C)    
1 43043U 17071G   19047.95813700  .00002033  00000-0  59397-4 0  9999
2 43043  51.6389 287.7289 0005567  79.3490 280.8122 15.40374564 67281
CHEFSAT                 
1 43044U 17071H   19048.52087491  .00004490  00000-0  11175-3 0  9994
2 43044  51.6386 281.8144 0005383  82.2178 277.9418 15.42364616 67415
ASGARDIA 1              
1 43049U 17071N   19047.91986815  .00002516  00000-0  70879-4 0  9993
2 43049  51.6391 287.4916 0003149  96.3895 263.7448 15.40486229 67289
ISARA                   
1 43050U 17071P   19048.50077522  .00003536  00000-0  91189-4 0  9997
2 43050  51.6382 282.4025 0003016  97.0838 263.0490 15.41959842 67394
